satname,norad_id,inclination_deg,eccentricity,mean_motion_rev_per_day,perigee_km,apogee_km,l1,l2
STARLINK-1008,44714,53.1545,0.0001364,15.465422,425.9221884167546,427.7785889763909,1 44714U 19074B   26127.76079842  .00014042  00000+0  28611-3 0  9993,2 44714  53.1545 261.6131 0001364  17.5989 342.5065 15.46542200357951
STARLINK-1012,44718,53.1586,8.89e-05,15.46720473,425.7225723986239,426.93240618481923,1 44718U 19074F   26127.82782222  .00015133  00000+0  30576-3 0  9992,2 44718  53.1586 261.6136 0000889   9.0315 351.0709 15.46720473357955
STARLINK-1017,44723,53.048,0.0003166,15.29223011,475.9630401142258,480.3044307438986,1 44723U 19074L   26127.58965124  .00038666  00000+0  13506-2 0  9994,2 44723  53.0480 258.6185 0003166 282.5254  77.5391 15.29223011357969
STARLINK-1019,44724,53.0267,0.0011141,16.15271347,225.05711688284282,239.78676431428448,1 44724U 19074M   26128.00617236  .00903278  52706-3  64843-3 0  9996,2 44724  53.0267 192.9886 0011141 357.3528   2.7447 16.15271347358906
STARLINK-1020,44725,53.16,0.0001302,15.5045499,414.51215814972784,416.28119431901996,1 44725U 19074N   26127.81589619  .00075126  00000+0  12926-2 0  9990,2 44725  53.1600 286.7817 0001302  15.8299 344.2751 15.50454990357584
STARLINK-1036,44741,53.0426,0.0002369,15.66247137,368.0558400209593,371.25294358239444,1 44741U 19074AE  26127.74085068  .00037968  00000+0  36463-3 0  9994,2 44741  53.0426 260.1076 0002369 220.2159 139.8681 15.66247137357952
STARLINK-1039,44744,53.0609,3.26e-05,15.26567544,485.8586554122485,486.30620251901655,1 44744U 19074AH  26127.76017336  .00040669  00000+0  15390-2 0  9999,2 44744  53.0609 302.5777 0000326 276.5963  83.4998 15.26567544357368
STARLINK-1042,44747,53.0412,0.0002678,15.52759049,406.85712234946914,410.49213865876845,1 44747U 19074AL  26127.53465220  .00015468  00000+0  25285-3 0  9990,2 44747  53.0412 171.7918 0002678  16.8059 343.3038 15.52759049359209
STARLINK-1043,44748,53.0511,0.0001185,15.57838963,393.1101615926327,394.71513735955796,1 44748U 19074AM  26127.56918973  .00028943  00000+0  38680-3 0  9997,2 44748  53.0511 269.5543 0001185 261.7367  98.3510 15.57838963357810
STARLINK-1046,44751,53.0502,0.0004054,15.51370293,409.9712909676382,415.4773213146582,1 44751U 19074AQ  26127.45553197  .00076264  00000+0  12695-2 0  9998,2 44751  53.0502 290.0428 0004054 335.3970  24.6844 15.51370293357511
STARLINK-1047,44752,53.0686,0.0003392,15.33877025,461.9371333346344,466.57901415266224,1 44752U 19074AR  26127.68314426  .00007489  00000+0  23638-3 0  9997,2 44752  53.0686 230.1283 0003392  58.0139 302.1191 15.33877025358390
STARLINK-1048,44753,53.0451,0.0005348,15.64488844,371.09781470761664,378.3206590425789,1 44753U 19074AS  26127.69782633  .00086422  00000+0  87729-3 0  9993,2 44753  53.0451 241.9050 0005348 313.3085  46.7483 15.64488844358209
STARLINK-1063,44768,53.1576,6.1e-05,15.46491069,426.58526816132326,427.41549492187187,1 44768U 19074BH  26127.90195431  .00036535  00000+0  72986-3 0  9996,2 44768  53.1576 301.9468 0000610  83.3977 276.7101 15.46491069357412
STARLINK-1067,44771,53.0438,0.0004961,15.70475836,354.19454412702817,360.8776789883159,1 44771U 19074BL  26128.00002315  .00062665  00000+0  50167-3 0  9990,2 44771  53.0438 273.7735 0004961 262.1748   6.5327 15.70475836  6029
STARLINK-1068,44772,53.0437,0.0001725,15.71405235,353.7185530009574,356.0414438654161,1 44772U 19074BM  26127.84525975  .00055586  00000+0  42914-3 0  9999,2 44772  53.0437 248.3664 0001725  75.9455 284.1754 15.71405235358124
STARLINK-1114,44927,53.0433,0.0002392,15.60721504,383.95387392612065,387.18963219358375,1 44927U 20001P   26127.91667010  .00095119  00000+0  11168-2 0  9990,2 44927  53.0433  42.7665 0002392  39.5183 320.6003 15.60721504349316
STARLINK-1123,44930,53.146,0.0002502,15.53656185,404.3643425175487,407.75915557156986,1 44930U 20001S   26127.93653086  .00078080  00000+0  11970-2 0  9993,2 44930  53.1460  67.6328 0002502 139.3514 220.7684 15.53656185348973
STARLINK-1094,44941,53.1555,0.0001962,15.5036582,414.3242201226776,416.99010495205675,1 44941U 20001AD  26127.95803957  .00073699  00000+0  12724-2 0  9990,2 44941  53.1555  41.7780 0001962 151.9628 208.1488 15.50365820349344
STARLINK-1122,44949,53.1564,0.0001517,15.50227956,415.02926480998303,417.0906241629391,1 44949U 20001AM  26127.77028194  .00070661  00000+0  12267-2 0  9998,2 44949  53.1564  43.2165 0001517 149.9498 210.1599 15.50227956349303
STARLINK-1080,44961,53.0476,9.64e-05,15.57277084,394.88851153392807,396.19447674759977,1 44961U 20001AZ  26127.91295050  .00088475  00000+0  11848-2 0  9991,2 44961  53.0476   3.0165 0000964 234.7984 125.2937 15.57277084349878
STARLINK-1090,44968,53.1515,0.0001512,15.46873739,424.84925210540405,426.90678624720204,1 44968U 20001BG  26128.00891119  .00067211  00000+0  13128-2 0  9995,2 44968  53.1515  29.0328 0001512 143.1069 217.0043 15.46873739349523
STARLINK-1132,45044,53.1546,0.0001861,15.51518436,411.0283277322442,413.55572541593574,1 45044U 20006A   26127.88900540  .00076670  00000+0  12698-2 0  9990,2 45044  53.1546 331.7374 0001861 117.1798 242.9402 15.51518436346095
STARLINK-1131,45047,53.1596,0.00013,15.48583521,419.9850442698007,421.7527858077101,1 45047U 20006D   26127.90538274  .00068937  00000+0  12684-2 0  9999,2 45047  53.1596   3.7783 0001300 176.3181 183.7838 15.48583521345642
STARLINK-1134,45048,53.0293,0.0003999,15.5175156,408.89669212350236,414.32713330389015,1 45048U 20006E   26127.91109580  .00085826  00000+0  14067-2 0  9998,2 45048  53.0293 315.0480 0003999 353.7787   6.3171 15.51751560346317
STARLINK-1156,45054,53.1605,0.0001786,15.32547092,466.9932625837546,469.43877988293934,1 45054U 20006L   26127.84649830  .00040604  00000+0  12788-2 0  9997,2 45054  53.1605   5.9865 0001786 189.3341 170.7628 15.32547092345601
STARLINK-1166,45060,53.0484,0.000135,15.54764407,401.9221240563502,403.75298718636714,1 45060U 20006S   26127.89530568  .00083780  00000+0  12322-2 0  9992,2 45060  53.0484 348.5595 0001350 164.3609 195.7443 15.54764407345848
STARLINK-1169,45061,53.1575,0.0003842,15.35424557,457.03265283976816,462.28681585043887,1 45061U 20006T   26127.94326295  .00042029  00000+0  12079-2 0  9999,2 45061  53.1575   4.8084 0003842 161.3047 198.8098 15.35424557345632
STARLINK-1171,45062,53.0436,0.0002849,15.70595584,355.27484310575346,359.11263456074084,1 45062U 20006U   26127.95747890  .00055408  00000+0  44248-3 0  9998,2 45062  53.0436 317.6503 0002849 165.5339 194.5760 15.70595584346284
STARLINK-1133,45064,53.1585,0.0001457,15.32630015,466.97159324048243,468.9665485495416,1 45064U 20006W   26127.88324051  .00044280  00000+0  13893-2 0  9999,2 45064  53.1585 342.6030 0001457 212.6678 147.4234 15.32630015345941
STARLINK-1167,45071,53.1585,0.0002914,15.34765192,459.62492324102914,463.6111324712647,1 45071U 20006AD  26127.86611714  .00042161  00000+0  12375-2 0  9990,2 45071  53.1585 342.2456 0002914 160.1079 200.0038 15.34765192345943
STARLINK-1168,45072,53.1597,0.0001529,15.32626253,466.9335025736773,469.02704523603734,1 45072U 20006AE  26127.86489415  .00041307  00000+0  12974-2 0  9998,2 45072  53.1597 342.9048 0001529 210.8121 149.2791 15.32626253345934
STARLINK-1172,45074,53.1569,0.0003105,15.35744634,456.586779998348,460.832461749912,1 45074U 20006AG  26127.84405806  .00046855  00000+0  13310-2 0  9998,2 45074  53.1569 341.9137 0003105 166.2843 193.8245 15.35744634345947
STARLINK-1153,45080,53.1602,0.0003385,15.34786329,459.23999405109043,463.870465690713,1 45080U 20006AN  26127.85015877  .00044029  00000+0  12906-2 0  9992,2 45080  53.1602 342.2408 0003385 178.6260 181.4752 15.34786329345949
STARLINK-1151,45081,53.0515,0.0003038,15.73464301,346.9610395251375,351.04845084951285,1 45081U 20006AP  26127.92543626  .00065357  00000+0  46109-3 0  9999,2 45081  53.0515 307.2113 0003038 192.4701 167.6243 15.73464301346426
STARLINK-1185,45087,53.1609,0.0002371,15.42763007,436.3428779753631,439.5750706863919,1 45087U 20006AV  26127.83268567  .00061543  00000+0  13841-2 0  9992,2 45087  53.1609 324.2561 0002371 244.4864 115.5897 15.42763007346192
STARLINK-1183,45088,53.1589,0.0001303,15.32528992,467.37784040376846,469.1620140490031,1 45088U 20006AW  26127.84093533  .00044404  00000+0  13975-2 0  9998,2 45088  53.1589 327.5932 0001303 237.0529 123.0348 15.32528992346149
STARLINK-1152,45096,53.0359,0.0001429,15.4545046,429.08191548245304,431.0276967006339,1 45096U 20006BE  26127.44715813  .00059353  00000+0  12195-2 0  9997,2 45096  53.0359 287.8191 0001429  10.4328 349.6707 15.45450460346655
STARLINK-1184,45098,53.0519,0.0002053,15.13047191,525.4958896900998,528.331103423986,1 45098U 20006BG  26127.83805978  .00022372  00000+0  12639-2 0  9998,2 45098  53.0519 337.6978 0002053 320.5493  39.5349 15.13047191345984
STARLINK-1193,45100,53.0488,0.0004119,15.6506252,370.27814119361847,375.83977642448644,1 45100U 20006BJ  26127.89030279  .00040563  00000+0  40779-3 0  9991,2 45100  53.0488 301.8282 0004119 196.9843 163.1035 15.65062520346496
STARLINK-1143,45179,53.0392,0.0001076,15.78996703,332.5599461194706,334.00424350867434,1 45179U 20012B   26128.00002315  .00068911  00000+0  38102-3 0  9992,2 45179  53.0392  36.3987 0001076  61.3486 287.1310 15.78996703  5998
STARLINK-1202,45183,53.1567,0.0003269,15.32258086,466.8385206491339,471.3152290805201,1 45183U 20012F   26127.97714522  .00042316  00000+0  13439-2 0  9998,2 45183  53.1567 123.6716 0003269  61.9279 298.2053 15.32258086344033
STARLINK-1216,45185,53.1562,0.0003167,15.32579883,465.95015566739403,470.2865738154205,1 45185U 20012H   26127.70118439  .00039076  00000+0  12300-2 0  9991,2 45185  53.1562 124.8775 0003167  61.5981 298.5339 15.32579883343930
STARLINK-1225,45187,53.1564,0.000285,15.32515603,466.3585661138686,470.26104079183733,1 45187U 20012K   26127.56833597  .00035377  00000+0  11175-2 0  9995,2 45187  53.1564 125.9469 0002850  55.6665 304.4606 15.32515603343953
